CTC2_L_00242016-03
1 27010U 23059HS  26037.47792824  .00000000  00000+0  00000-0 0  9999
2 27010  75.0000 180.0000 0000000   0.0000   0.0000 14.15679836    14
CTC2_L_00242016-04
1 27011U 26777HO  26037.47792824  .00000000  00000+0  00000-0 0  9990
2 27011  75.0000 180.0000 0000000   0.0000  90.0000 14.15679836    14
CTC2_L_00242017-01
1 27012U 25940HP  26037.47792824  .00000000  00000+0  00000-0 0  9992
2 27012  75.0000 192.0000 0000000   0.0000 192.0000 14.15679836    11
CTC2_L_00242017-02
1 27013U 22699SM  26037.47792824  .00000000  00000+0  00000-0 0  9991
2 27013  75.0000 192.0000 0000000   0.0000 282.0000 14.15679836    12
CTC2_L_00242017-03
1 27014U 22809UO  26037.47792824  .00000000  00000+0  00000-0 0  9995
2 27014  75.0000 192.0000 0000000   0.0000  12.0000 14.15679836    14
CTC2_L_00242017-04
1 27015U 22534LN  26037.47792824  .00000000  00000+0  00000-0 0  9991
2 27015  75.0000 192.0000 0000000   0.0000 102.0000 14.15679836    15
CTC2_L_00242018-01
1 27016U 25198LD  26037.47792824  .00000000  00000+0  00000-0 0  9991
2 27016  75.0000 204.0000 0000000   0.0000 204.0000 14.15679836    13
CTC2_L_00242018-02
1 27017U 24853SE  26037.47792824  .00000000  00000+0  00000-0 0  9999
2 27017  75.0000 204.0000 0000000   0.0000 294.0000 14.15679836    13
CTC2_L_00242018-03
1 27018U 22528LQ  26037.47792824  .00000000  00000+0  00000-0 0  9997
2 27018  75.0000 204.0000 0000000   0.0000  24.0000 14.15679836    15
CTC2_L_00242018-04
1 27019U 22269JN  26037.47792824  .00000000  00000+0  00000-0 0  9990
2 27019  75.0000 204.0000 0000000   0.0000 114.0000 14.15679836    16
CTC2_L_00242019-01
1 27020U 24644DR  26037.47792824  .00000000  00000+0  00000-0 0  9991
2 27020  75.0000 216.0000 0000000   0.0000 216.0000 14.15679836    14
CTC2_L_00242019-02
1 27021U 23144NA  26037.47792824  .00000000  00000+0  00000-0 0  9996
2 27021  75.0000 216.0000 0000000   0.0000 306.0000 14.15679836    15
CTC2_L_00242019-03
1 27022U 24669JZ  26037.47792824  .00000000  00000+0  00000-0 0  9990
2 27022  75.0000 216.0000 0000000   0.0000  36.0000 14.15679836    16
CTC2_L_00242019-04
1 27023U 25555XD  26037.47792824  .00000000  00000+0  00000-0 0  9996
2 27023  75.0000 216.0000 0000000   0.0000 126.0000 14.15679836    17
CTC2_L_00242020-01
1 27024U 23169RA  26037.47792824  .00000000  00000+0  00000-0 0  9996
2 27024  75.0000 228.0000 0000000   0.0000 228.0000 14.15679836    14
CTC2_L_00242020-02
1 27025U 26727FX  26037.47792824  .00000000  00000+0  00000-0 0  9990
2 27025  75.0000 228.0000 0000000   0.0000 318.0000 14.15679836    15
CTC2_L_00242020-03
1 27026U 24384N   26037.47792824  .00000000  00000+0  00000-0 0  9998
2 27026  75.0000 228.0000 0000000   0.0000  48.0000 14.15679836    16
CTC2_L_00242020-04
1 27027U 24234KC  26037.47792824  .00000000  00000+0  00000-0 0  9993
2 27027  75.0000 228.0000 0000000   0.0000 138.0000 14.15679836    17
CTC2_L_00242021-01
1 27028U 26466TN  26037.47792824  .00000000  00000+0  00000-0 0  9993
2 27028  75.0000 240.0000 0000000   0.0000 240.0000 14.15679836    16
CTC2_L_00242021-02
1 27029U 26286CD  26037.47792824  .00000000  00000+0  00000-0 0  9994
2 27029  75.0000 240.0000 0000000   0.0000 330.0000 14.15679836    17
CTC2_L_00242021-03
1 27030U 25691EP  26037.47792824  .00000000  00000+0  00000-0 0  9995
2 27030  75.0000 240.0000 0000000   0.0000  60.0000 14.15679836    19
CTC2_L_00242021-04
1 27031U 23852ME  26037.47792824  .00000000  00000+0  00000-0 0  9993
2 27031  75.0000 240.0000 0000000   0.0000 150.0000 14.15679836    10
CTC2_L_00242022-01
1 27032U 22328BV  26037.47792824  .00000000  00000+0  00000-0 0  9991
2 27032  75.0000 252.0000 0000000   0.0000 252.0000 14.15679836    17
CTC2_L_00242022-02
1 27033U 24262QH  26037.47792824  .00000000  00000+0  00000-0 0  9991
2 27033  75.0000 252.0000 0000000   0.0000 342.0000 14.15679836    18
CTC2_L_00242022-03
1 27034U 25866JC  26037.47792824  .00000000  00000+0  00000-0 0  9993
2 27034  75.0000 252.0000 0000000   0.0000  72.0000 14.15679836    19
CTC2_L_00242022-04
1 27035U 25528AX  26037.47792824  .00000000  00000+0  00000-0 0  9999
2 27035  75.0000 252.0000 0000000   0.0000 162.0000 14.15679836    10
CTC2_L_00242023-01
1 27036U 22611KX  26037.47792824  .00000000  00000+0  00000-0 0  9990
2 27036  75.0000 264.0000 0000000   0.0000 264.0000 14.15679836    17
CTC2_L_00242023-02
1 27037U 25770O   26037.47792824  .00000000  00000+0  00000-0 0  9990
2 27037  75.0000 264.0000 0000000   0.0000 354.0000 14.15679836    18
CTC2_L_00242023-03
1 27038U 26461SF  26037.47792824  .00000000  00000+0  00000-0 0  9999
2 27038  75.0000 264.0000 0000000   0.0000  84.0000 14.15679836    19
CTC2_L_00242023-04
1 27039U 24317ZI  26037.47792824  .00000000  00000+0  00000-0 0  9998
2 27039  75.0000 264.0000 0000000   0.0000 174.0000 14.15679836    10
CTC2_L_00242024-01
1 27040U 26231LX  26037.47792824  .00000000  00000+0  00000-0 0  9997
2 27040  75.0000 276.0000 0000000   0.0000 276.0000 14.15679836    18
CTC2_L_00242024-02
1 27041U 25923C   26037.47792824  .00000000  00000+0  00000-0 0  9995
2 27041  75.0000 276.0000 0000000   0.0000   6.0000 14.15679836    10
CTC2_L_00242024-03
1 27042U 24576MR  26037.47792824  .00000000  00000+0  00000-0 0  9999
2 27042  75.0000 276.0000 0000000   0.0000  96.0000 14.15679836    10
CTC2_L_00242024-04
1 27043U 24954RP  26037.47792824  .00000000  00000+0  00000-0 0  9990
2 27043  75.0000 276.0000 0000000   0.0000 186.0000 14.15679836    11
CTC2_L_00242025-01
1 27044U 26585DS  26037.47792824  .00000000  00000+0  00000-0 0  9993
2 27044  75.0000 288.0000 0000000   0.0000 288.0000 14.15679836    18
CTC2_L_00242025-02
1 27045U 22597IW  26037.47792824  .00000000  00000+0  00000-0 0  9993
2 27045  75.0000 288.0000 0000000   0.0000  18.0000 14.15679836    10
CTC2_L_00242025-03
1 27046U 22027MS  26037.47792824  .00000000  00000+0  00000-0 0  9992
2 27046  75.0000 288.0000 0000000   0.0000 108.0000 14.15679836    11
CTC2_L_00242025-04
1 27047U 26080Y   26037.47792824  .00000000  00000+0  00000-0 0  9996
2 27047  75.0000 288.0000 0000000   0.0000 198.0000 14.15679836    11
CTC2_L_00242026-01
1 27048U 25685WD  26037.47792824  .00000000  00000+0  00000-0 0  9997
2 27048  75.0000 300.0000 0000000   0.0000 300.0000 14.15679836    12
CTC2_L_00242026-02
1 27049U 26615XO  26037.47792824  .00000000  00000+0  00000-0 0  9992
2 27049  75.0000 300.0000 0000000   0.0000  30.0000 14.15679836    13
CTC2_L_00242026-03
1 27050U 23567QN  26037.47792824  .00000000  00000+0  00000-0 0  9997
2 27050  75.0000 300.0000 0000000   0.0000 120.0000 14.15679836    15
CTC2_L_00242026-04
1 27051U 22382UJ  26037.47792824  .00000000  00000+0  00000-0 0  9992
2 27051  75.0000 300.0000 0000000   0.0000 210.0000 14.15679836    16
CTC2_L_00242027-01
1 27052U 23036FL  26037.47792824  .00000000  00000+0  00000-0 0  9990
2 27052  75.0000 312.0000 0000000   0.0000 312.0000 14.15679836    13
CTC2_L_00242027-02
1 27053U 23819JQ  26037.47792824  .00000000  00000+0  00000-0 0  9990
2 27053  75.0000 312.0000 0000000   0.0000  42.0000 14.15679836    14
CTC2_L_00242027-03
1 27054U 23356VK  26037.47792824  .00000000  00000+0  00000-0 0  9997
2 27054  75.0000 312.0000 0000000   0.0000 132.0000 14.15679836    15
CTC2_L_00242027-04
1 27055U 24402TT  26037.47792824  .00000000  00000+0  00000-0 0  9991
2 27055  75.0000 312.0000 0000000   0.0000 222.0000 14.15679836    16
CTC2_L_00242028-01
1 27056U 25245RS  26037.47792824  .00000000  00000+0  00000-0 0  9998
2 27056  75.0000 324.0000 0000000   0.0000 324.0000 14.15679836    13
CTC2_L_00242028-02
1 27057U 26667ER  26037.47792824  .00000000  00000+0  00000-0 0  9998
2 27057  75.0000 324.0000 0000000   0.0000  54.0000 14.15679836    14
CTC2_L_00242028-03
1 27058U 25551WK  26037.47792824  .00000000  00000+0  00000-0 0  9990
2 27058  75.0000 324.0000 0000000   0.0000 144.0000 14.15679836    15
CTC2_L_00242028-04
1 27059U 24560VD  26037.47792824  .00000000  00000+0  00000-0 0  9990
2 27059  75.0000 324.0000 0000000   0.0000 234.0000 14.15679836    16
CTC2_L_00242029-01
1 27060U 25899DN  26037.47792824  .00000000  00000+0  00000-0 0  9998
2 27060  75.0000 336.0000 0000000   0.0000 336.0000 14.15679836    14
CTC2_L_00242029-02
1 27061U 24508EK  26037.47792824  .00000000  00000+0  00000-0 0  9995
2 27061  75.0000 336.0000 0000000   0.0000  66.0000 14.15679836    15
CTC2_L_00242029-03
1 27062U 24280BF  26037.47792824  .00000000  00000+0  00000-0 0  9993
2 27062  75.0000 336.0000 0000000   0.0000 156.0000 14.15679836    16
CTC2_L_00242029-04
1 27063U 23401VS  26037.47792824  .00000000  00000+0  00000-0 0  9998
2 27063  75.0000 336.0000 0000000   0.0000 246.0000 14.15679836    17
CTC2_L_00242030-01
1 27064U 23201LA  26037.47792824  .00000000  00000+0  00000-0 0  9997
2 27064  75.0000 348.0000 0000000   0.0000 348.0000 14.15679836    14
CTC2_L_00242030-02
1 27065U 25760LZ  26037.47792824  .00000000  00000+0  00000-0 0  9990
2 27065  75.0000 348.0000 0000000   0.0000  78.0000 14.15679836    15
CTC2_L_00242030-03
1 27066U 26142WM  26037.47792824  .00000000  00000+0  00000-0 0  9996
2 27066  75.0000 348.0000 0000000   0.0000 168.0000 14.15679836    16
CTC2_L_00242030-04
1 27067U 22237FS  26037.47792824  .00000000  00000+0  00000-0 0  9998
2 27067  75.0000 348.0000 0000000   0.0000 258.0000 14.15679836    17
